{
  "type": "FeatureCollection",
  "features": [
    {
      "type": "Feature",
      "properties": {
        "norad_id": 65731,
        "name": "1998-067XK",
        "group": "stations",
        "lat": -18.426537492208034,
        "lon": -12.077807773792713,
        "alt_km": 372.9159749764576,
        "timestamp": "2025-12-09T16:56:35.375973+00:00",
        "meta_object_name": "1998-067XK",
        "meta_object_id": "1998-067XK",
        "meta_epoch": "2025-12-09T11:28:42.047616",
        "meta_mean_motion": 15.6489001,
        "meta_eccentricity": 0.0005245,
        "meta_inclination": 51.6282,
        "meta_ra_of_asc_node": 153.7695,
        "meta_arg_of_pericenter": 225.0581,
        "meta_mean_anomaly": 134.9989,
        "meta_ephemeris_type": 0,
        "meta_classification_type": "U",
        "meta_norad_cat_id": 65731,
        "meta_element_set_no": 999,
        "meta_rev_at_epoch": 1263,
        "meta_bstar": 0.0011288,
        "meta_mean_motion_dot": 0.00113689,
        "meta_mean_motion_ddot": 0,
        "tle_line1": "1 65731U 98067XK  25343.47826444  .00113689  00000+0  11288-2 0  9997",
        "tle_line2": "2 65731  51.6282 153.7695 0005245 225.0581 134.9989 15.64890010 12632"
      },
      "geometry": {
        "type": "Point",
        "coordinates": [
          -12.077807773792713,
          -18.426537492208034
        ]
      }
    },
    {
      "type": "Feature",
      "properties": {
        "norad_id": 65732,
        "name": "RSP-03",
        "group": "stations",
        "lat": 26.018212731376522,
        "lon": -50.778757474152094,
        "alt_km": 362.2552671724334,
        "timestamp": "2025-12-09T16:56:35.375987+00:00",
        "meta_object_name": "RSP-03",
        "meta_object_id": "1998-067XL",
        "meta_epoch": "2025-12-09T11:43:58.717056",
        "meta_mean_motion": 15.67520874,
        "meta_eccentricity": 0.0006011,
        "meta_inclination": 51.626,
        "meta_ra_of_asc_node": 153.082,
        "meta_arg_of_pericenter": 229.3299,
        "meta_mean_anomaly": 130.7176,
        "meta_ephemeris_type": 0,
        "meta_classification_type": "U",
        "meta_norad_cat_id": 65732,
        "meta_element_set_no": 999,
        "meta_rev_at_epoch": 1265,
        "meta_bstar": 0.001321,
        "meta_mean_motion_dot": 0.00148707,
        "meta_mean_motion_ddot": 0,
        "tle_line1": "1 65732U 98067XL  25343.48887404  .00148707  00000+0  13210-2 0  9998",
        "tle_line2": "2 65732  51.6260 153.0820 0006011 229.3299 130.7176 15.67520874 12652"
      },
      "geometry": {
        "type": "Point",
        "coordinates": [
          -50.778757474152094,
          26.018212731376522
        ]
      }
    },
    {
      "type": "Feature",
      "properties": {
        "norad_id": 65733,
        "name": "GHS-01",
        "group": "stations",
        "lat": -0.799487643692559,
        "lon": 150.14704479765948,
        "alt_km": 351.79004753920344,
        "timestamp": "2025-12-09T16:56:35.375998+00:00",
        "meta_object_name": "GHS-01",
        "meta_object_id": "1998-067XM",
        "meta_epoch": "2025-12-09T00:10:31.774944",
        "meta_mean_motion": 15.72845555,
        "meta_eccentricity": 0.00068773,
        "meta_inclination": 51.6283,
        "meta_ra_of_asc_node": 154.3653,
        "meta_arg_of_pericenter": 253.5848,
        "meta_mean_anomaly": 106.4394,
        "meta_ephemeris_type": 0,
        "meta_classification_type": "U",
        "meta_norad_cat_id": 65733,
        "meta_element_set_no": 999,
        "meta_rev_at_epoch": 1259,
        "meta_bstar": 0.0015000957,
        "meta_mean_motion_dot": 0.0021266,
        "meta_mean_motion_ddot": 0,
        "tle_line1": "1 65733U 98067XM  25343.00731221  .00212660  00000+0  15001-2 0  9992",
        "tle_line2": "2 65733  51.6283 154.3653 0006877 253.5848 106.4394 15.72845555 12592"
      },
      "geometry": {
        "type": "Point",
        "coordinates": [
          150.14704479765948,
          -0.799487643692559
        ]
      }
    },
    {
      "type": "Feature",
      "properties": {
        "norad_id": 65941,
        "name": "YOTSUBA-KULOVER",
        "group": "stations",
        "lat": 24.635389995105783,
        "lon": 176.52434385688724,
        "alt_km": 389.1093987876029,
        "timestamp": "2025-12-09T16:56:35.376008+00:00",
        "meta_object_name": "YOTSUBA-KULOVER",
        "meta_object_id": "1998-067XN",
        "meta_epoch": "2025-12-08T16:11:16.679040",
        "meta_mean_motion": 15.58725095,
        "meta_eccentricity": 0.00016918,
        "meta_inclination": 51.6278,
        "meta_ra_of_asc_node": 160.3988,
        "meta_arg_of_pericenter": 209.1564,
        "meta_mean_anomaly": 150.9334,
        "meta_ephemeris_type": 0,
        "meta_classification_type": "U",
        "meta_norad_cat_id": 65941,
        "meta_element_set_no": 999,
        "meta_rev_at_epoch": 922,
        "meta_bstar": 0.00092611573,
        "meta_mean_motion_dot": 0.00072881,
        "meta_mean_motion_ddot": 0,
        "tle_line1": "1 65941U 98067XN  25342.67449860  .00072881  00000+0  92612-3 0  9993",
        "tle_line2": "2 65941  51.6278 160.3988 0001691 209.1564 150.9334 15.58725095  9220"
      },
      "geometry": {
        "type": "Point",
        "coordinates": [
          176.52434385688724,
          24.635389995105783
        ]
      }
    },
    {
      "type": "Feature",
      "properties": {
        "norad_id": 65942,
        "name": "BOTAN",
        "group": "stations",
        "lat": -26.78583707896673,
        "lon": 131.0308156984377,
        "alt_km": 386.46765103089183,
        "timestamp": "2025-12-09T16:56:35.376019+00:00",
        "meta_object_name": "BOTAN",
        "meta_object_id": "1998-067XP",
        "meta_epoch": "2025-12-08T18:03:33.084000",
        "meta_mean_motion": 15.61774772,
        "meta_eccentricity": 0.00036469,
        "meta_inclination": 51.6289,
        "meta_ra_of_asc_node": 159.4206,
        "meta_arg_of_pericenter": 205.1392,
        "meta_mean_anomaly": 154.9425,
        "meta_ephemeris_type": 0,
        "meta_classification_type": "U",
        "meta_norad_cat_id": 65942,
        "meta_element_set_no": 999,
        "meta_rev_at_epoch": 924,
        "meta_bstar": 0.0011867098,
        "meta_mean_motion_dot": 0.00105605,
        "meta_mean_motion_ddot": 0,
        "tle_line1": "1 65942U 98067XP  25342.75246625  .00105605  00000+0  11867-2 0  9990",
        "tle_line2": "2 65942  51.6289 159.4206 0003646 205.1392 154.9425 15.61774772  9249"
      },
      "geometry": {
        "type": "Point",
        "coordinates": [
          131.0308156984377,
          -26.78583707896673
        ]
      }
    },
    {
      "type": "Feature",
      "properties": {
        "norad_id": 65943,
        "name": "E-KAGAKU-1",
        "group": "stations",
        "lat": 24.41021453704509,
        "lon": 176.2979241154893,
        "alt_km": 390.0352001258161,
        "timestamp": "2025-12-09T16:56:35.376029+00:00",
        "meta_object_name": "E-KAGAKU-1",
        "meta_object_id": "1998-067XQ",
        "meta_epoch": "2025-12-08T17:43:35.861664",
        "meta_mean_motion": 15.58651727,
        "meta_eccentricity": 0.00029774,
        "meta_inclination": 51.6297,
        "meta_ra_of_asc_node": 160.0822,
        "meta_arg_of_pericenter": 178.8942,
        "meta_mean_anomaly": 181.2057,
        "meta_ephemeris_type": 0,
        "meta_classification_type": "U",
        "meta_norad_cat_id": 65943,
        "meta_element_set_no": 999,
        "meta_rev_at_epoch": 923,
        "meta_bstar": 0.00085624806,
        "meta_mean_motion_dot": 0.00067115,
        "meta_mean_motion_ddot": 0,
        "tle_line1": "1 65943U 98067XQ  25342.73860951  .00067115  00000+0  85625-3 0  9990",
        "tle_line2": "2 65943  51.6297 160.0822 0002977 178.8942 181.2057 15.58651727  9237"
      },
      "geometry": {
        "type": "Point",
        "coordinates": [
          176.2979241154893,
          24.41021453704509
        ]
      }
    },
    {
      "type": "Feature",
      "properties": {
        "norad_id": 66052,
        "name": "HRC MONOBLOCK CAMERA",
        "group": "stations",
        "lat": 48.47486662852918,
        "lon": -139.8894840872616,
        "alt_km": 399.3363960204106,
        "timestamp": "2025-12-09T16:56:35.376040+00:00",
        "meta_object_name": "HRC MONOBLOCK CAMERA",
        "meta_object_id": "1998-067XR",
        "meta_epoch": "2025-12-09T12:00:01.914624",
        "meta_mean_motion": 15.53794743,
        "meta_eccentricity": 0.0003812,
        "meta_inclination": 51.629,
        "meta_ra_of_asc_node": 157.6571,
        "meta_arg_of_pericenter": 171.0105,
        "meta_mean_anomaly": 189.0954,
        "meta_ephemeris_type": 0,
        "meta_classification_type": "U",
        "meta_norad_cat_id": 66052,
        "meta_element_set_no": 999,
        "meta_rev_at_epoch": 833,
        "meta_bstar": 0.00068667,
        "meta_mean_motion_dot": 0.0004469,
        "meta_mean_motion_ddot": 0,
        "tle_line1": "1 66052U 98067XR  25343.50002216  .00044690  00000+0  68667-3 0  9990",
        "tle_line2": "2 66052  51.6290 157.6571 0003812 171.0105 189.0954 15.53794743  8333"
      },
      "geometry": {
        "type": "Point",
        "coordinates": [
          -139.8894840872616,
          48.47486662852918
        ]
      }
    }
  ]
}